{"type": "FeatureCollection", "features": [ {"type": "Feature", "properties": {"norad_id": 41019, "name": "GPS BIIF-11 (PRN 10)", "group": "gnss", "lat": -19.244852645933165, "lon": -128.51582668372654, "alt_km": 19920.65506848343, "timestamp": "2025-12-05T14:45:15.543715+00:00", "meta": {"OBJECT_NAME": "GPS BIIF-11 (PRN 10)", "OBJECT_ID": "2015-062A", "EPOCH": "2025-12-03T20:03:13.853664", "MEAN_MOTION": 2.0056693, "ECCENTRICITY": 0.0110571, "INCLINATION": 56.8259, "RA_OF_ASC_NODE": 38.3468, "ARG_OF_PERICENTER": 229.69, "MEAN_ANOMALY": 129.3913, "EPHEMERIS_TYPE": 0, "CLASSIFICATION_TYPE": "U", "NORAD_CAT_ID": 41019, "ELEMENT_SET_NO": 999, "REV_AT_EPOCH": 7391, "BSTAR": 0, "MEAN_MOTION_DOT": -6.5e-07, "MEAN_MOTION_DDOT": 0}, "tle": {"line1": "1 41019U 15062A   25337.83557701 -.00000065  00000+0  00000+0 0  9995", "line2": "2 41019  56.8259  38.3468 0110571 229.6900 129.3913  2.00566930 73916"}}, "geometry": {"type": "Point", "coordinates": [-128.51582668372654, -19.244852645933165]}}, {"type": "Feature", "properties": {"norad_id": 41028, "name": "GSAT-15 (GAGAN/PRN 139)", "group": "gnss", "lat": 0.0026437835540195484, "lon": 29.484537221930328, "alt_km": 35797.78459410724, "timestamp": "2025-12-05T14:45:15.543726+00:00", "meta": {"OBJECT_NAME": "GSAT-15 (GAGAN/PRN 139)", "OBJECT_ID": "2015-065A", "EPOCH": "2025-12-04T14:10:17.052096", "MEAN_MOTION": 1.00271688, "ECCENTRICITY": 0.0003025, "INCLINATION": 0.0357, "RA_OF_ASC_NODE": 94.9288, "ARG_OF_PERICENTER": 139.6984, "MEAN_ANOMALY": 145.1059, "EPHEMERIS_TYPE": 0, "CLASSIFICATION_TYPE": "U", "NORAD_CAT_ID": 41028, "ELEMENT_SET_NO": 999, "REV_AT_EPOCH": 3684, "BSTAR": 0, "MEAN_MOTION_DOT": -2.43e-06, "MEAN_MOTION_DDOT": 0}, "tle": {"line1": "1 41028U 15065A   25338.59047514 -.00000243  00000+0  00000+0 0  9996", "line2": "2 41028   0.0357  94.9288 0003025 139.6984 145.1059  1.00271688 36841"}}, "geometry": {"type": "Point", "coordinates": [29.484537221930328, 0.0026437835540195484]}}, {"type": "Feature", "properties": {"norad_id": 41174, "name": "GSAT0209 (GALILEO 12)", "group": "gnss", "lat": 55.69160907365732, "lon": -161.18429859761332, "alt_km": 23216.215074171883, "timestamp": "2025-12-05T14:45:15.543738+00:00", "meta": {"OBJECT_NAME": "GSAT0209 (GALILEO 12)", "OBJECT_ID": "2015-079A", "EPOCH": "2025-12-01T22:43:10.411392", "MEAN_MOTION": 1.70474306, "ECCENTRICITY": 0.0002352, "INCLINATION": 55.7062, "RA_OF_ASC_NODE": 106.6773, "ARG_OF_PERICENTER": 357.4206, "MEAN_ANOMALY": 2.5431, "EPHEMERIS_TYPE": 0, "CLASSIFICATION_TYPE": "U", "NORAD_CAT_ID": 41174, "ELEMENT_SET_NO": 999, "REV_AT_EPOCH": 6141, "BSTAR": 0, "MEAN_MOTION_DOT": 3.5e-07, "MEAN_MOTION_DDOT": 0}, "tle": {"line1": "1 41174U 15079A   25335.94664828  .00000035  00000+0  00000+0 0  9990", "line2": "2 41174  55.7062 106.6773 0002352 357.4206   2.5431  1.70474306 61412"}}, "geometry": {"type": "Point", "coordinates": [-161.18429859761332, 55.69160907365732]}}, {"type": "Feature", "properties": {"norad_id": 41175, "name": "GSAT0208 (GALILEO 11)", "group": "gnss", "lat": -34.952919963189906, "lon": 78.09164778151943, "alt_km": 23223.120541288463, "timestamp": "2025-12-05T14:45:15.543788+00:00", "meta": {"OBJECT_NAME": "GSAT0208 (GALILEO 11)", "OBJECT_ID": "2015-079B", "EPOCH": "2025-12-03T08:09:32.138784", "MEAN_MOTION": 1.70474152, "ECCENTRICITY": 0.00019072, "INCLINATION": 55.7055, "RA_OF_ASC_NODE": 106.6362, "ARG_OF_PERICENTER": 9.6551, "MEAN_ANOMALY": 350.3047, "EPHEMERIS_TYPE": 0, "CLASSIFICATION_TYPE": "U", "NORAD_CAT_ID": 41175, "ELEMENT_SET_NO": 999, "REV_AT_EPOCH": 6185, "BSTAR": 0, "MEAN_MOTION_DOT": 2.2e-07, "MEAN_MOTION_DDOT": 0}, "tle": {"line1": "1 41175U 15079B   25337.33995531  .00000022  00000+0  00000+0 0  9990", "line2": "2 41175  55.7055 106.6362 0001907   9.6551 350.3047  1.70474152 61857"}}, "geometry": {"type": "Point", "coordinates": [78.09164778151943, -34.952919963189906]}}, {"type": "Feature", "properties": {"norad_id": 41241, "name": "IRNSS-1E", "group": "gnss", "lat": -7.919425437735853, "lon": 50.101408728305685, "alt_km": 35872.206614034796, "timestamp": "2025-12-05T14:45:15.543803+00:00", "meta": {"OBJECT_NAME": "IRNSS-1E", "OBJECT_ID": "2016-003A", "EPOCH": "2025-12-03T17:21:12.375360", "MEAN_MOTION": 1.00277647, "ECCENTRICITY": 0.00219003, "INCLINATION": 32.8059, "RA_OF_ASC_NODE": 62.5847, "ARG_OF_PERICENTER": 186.7982, "MEAN_ANOMALY": 195.4387, "EPHEMERIS_TYPE": 0, "CLASSIFICATION_TYPE": "U", "NORAD_CAT_ID": 41241, "ELEMENT_SET_NO": 999, "REV_AT_EPOCH": 3612, "BSTAR": 0, "MEAN_MOTION_DOT": -3.08e-06, "MEAN_MOTION_DDOT": 0}, "tle": {"line1": "1 41241U 16003A   25337.72305990 -.00000308  00000+0  00000+0 0  9997", "line2": "2 41241  32.8059  62.5847 0021900 186.7982 195.4387  1.00277647 36129"}}, "geometry": {"type": "Point", "coordinates": [50.101408728305685, -7.919425437735853]}}, {"type": "Feature", "properties": {"norad_id": 41328, "name": "GPS BIIF-12 (PRN 32)", "group": "gnss", "lat": 29.47359649039314, "lon": -105.80659407393392, "alt_km": 20219.12476415508, "timestamp": "2025-12-05T14:45:15.543818+00:00", "meta": {"OBJECT_NAME": "GPS BIIF-12 (PRN 32)", "OBJECT_ID": "2016-007A", "EPOCH": "2025-12-03T22:01:44.177088", "MEAN_MOTION": 2.00561076, "ECCENTRICITY": 0.0091739, "INCLINATION": 55.4011, "RA_OF_ASC_NODE": 97.2072, "ARG_OF_PERICENTER": 243.359, "MEAN_ANOMALY": 115.6713, "EPHEMERIS_TYPE": 0, "CLASSIFICATION_TYPE": "U", "NORAD_CAT_ID": 41328, "ELEMENT_SET_NO": 999, "REV_AT_EPOCH": 7192, "BSTAR": 0, "MEAN_MOTION_DOT": -7e-08, "MEAN_MOTION_DDOT": 0}, "tle": {"line1": "1 41328U 16007A   25337.91787242 -.00000007  00000+0  00000+0 0  9998", "line2": "2 41328  55.4011  97.2072 0091739 243.3590 115.6713  2.00561076 71928"}}, "geometry": {"type": "Point", "coordinates": [-105.80659407393392, 29.47359649039314]}}, {"type": "Feature", "properties": {"norad_id": 41330, "name": "COSMOS 2514 (751)", "group": "gnss", "lat": 62.24262433642348, "lon": 77.86859312773728, "alt_km": 19137.60273849316, "timestamp": "2025-12-05T14:45:15.543830+00:00", "meta": {"OBJECT_NAME": "COSMOS 2514 (751)", "OBJECT_ID": "2016-008A", "EPOCH": "2025-12-03T14:29:09.873600", "MEAN_MOTION": 2.1310246, "ECCENTRICITY": 0.00124497, "INCLINATION": 65.139, "RA_OF_ASC_NODE": 319.717, "ARG_OF_PERICENTER": 219.8924, "MEAN_ANOMALY": 140.017, "EPHEMERIS_TYPE": 0, "CLASSIFICATION_TYPE": "U", "NORAD_CAT_ID": 41330, "ELEMENT_SET_NO": 999, "REV_AT_EPOCH": 7645, "BSTAR": 0, "MEAN_MOTION_DOT": -4.2e-07, "MEAN_MOTION_DDOT": 0}, "tle": {"line1": "1 41330U 16008A   25337.60358650 -.00000042  00000+0  00000+0 0  9994", "line2": "2 41330  65.1390 319.7170 0012449 219.8924 140.0170  2.13102460 76454"}}, "geometry": {"type": "Point", "coordinates": [77.86859312773728, 62.24262433642348]}}, {"type": "Feature", "properties": {"norad_id": 41384, "name": "IRNSS-1F", "group": "gnss", "lat": -3.563787018220028, "lon": -31.559471537759997, "alt_km": 35723.3747755988, "timestamp": "2025-12-05T14:45:15.543843+00:00", "meta": {"OBJECT_NAME": "IRNSS-1F", "OBJECT_ID": "2016-015A", "EPOCH": "2025-12-04T13:52:48.727200", "MEAN_MOTION": 1.00268262, "ECCENTRICITY": 0.0022409, "INCLINATION": 4.8599, "RA_OF_ASC_NODE": 101.5018, "ARG_OF_PERICENTER": 179.6667, "MEAN_ANOMALY": 33.0691, "EPHEMERIS_TYPE": 0, "CLASSIFICATION_TYPE": "U", "NORAD_CAT_ID": 41384, "ELEMENT_SET_NO": 999, "REV_AT_EPOCH": 3571, "BSTAR": 0, "MEAN_MOTION_DOT": 1.71e-06, "MEAN_MOTION_DDOT": 0}, "tle": {"line1": "1 41384U 16015A   25338.57834175  .00000171  00000+0  00000+0 0  9991", "line2": "2 41384   4.8599 101.5018 0022409 179.6667  33.0691  1.00268262 35717"}}, "geometry": {"type": "Point", "coordinates": [-31.559471537759997, -3.563787018220028]}}, {"type": "Feature", "properties": {"norad_id": 41434, "name": "BEIDOU-2 IGSO-6 (C13)", "group": "gnss", "lat": -10.15014756683105, "lon": 34.07315943687736, "alt_km": 35905.19623845871, "timestamp": "2025-12-05T14:45:15.543855+00:00", "meta": {"OBJECT_NAME": "BEIDOU-2 IGSO-6 (C13)", "OBJECT_ID": "2016-021A", "EPOCH": "2025-12-01T15:57:35.287200", "MEAN_MOTION": 1.00256562, "ECCENTRICITY": 0.00591323, "INCLINATION": 59.9483, "RA_OF_ASC_NODE": 40.0119, "ARG_OF_PERICENTER": 231.2834, "MEAN_ANOMALY": 130.8807, "EPHEMERIS_TYPE": 0, "CLASSIFICATION_TYPE": "U", "NORAD_CAT_ID": 41434, "ELEMENT_SET_NO": 999, "REV_AT_EPOCH": 3550, "BSTAR": 0, "MEAN_MOTION_DOT": -1.55e-06, "MEAN_MOTION_DDOT": 0}, "tle": {"line1": "1 41434U 16021A   25335.66499175 -.00000155  00000+0  00000+0 0  9991", "line2": "2 41434  59.9483  40.0119 0059132 231.2834 130.8807  1.00256562 35501"}}, "geometry": {"type": "Point", "coordinates": [34.07315943687736, -10.15014756683105]}}, {"type": "Feature", "properties": {"norad_id": 41469, "name": "IRNSS-1G", "group": "gnss", "lat": -2.786234589665661, "lon": 65.68061179159325, "alt_km": 35772.28311716406, "timestamp": "2025-12-05T14:45:15.543869+00:00", "meta": {"OBJECT_NAME": "IRNSS-1G", "OBJECT_ID": "2016-027A", "EPOCH": "2025-12-04T14:20:38.560128", "MEAN_MOTION": 1.00289359, "ECCENTRICITY": 0.0002879, "INCLINATION": 4.713, "RA_OF_ASC_NODE": 102.3035, "ARG_OF_PERICENTER": 3.0544, "MEAN_ANOMALY": 313.0402, "EPHEMERIS_TYPE": 0, "CLASSIFICATION_TYPE": "U", "NORAD_CAT_ID": 41469, "ELEMENT_SET_NO": 999, "REV_AT_EPOCH": 3522, "BSTAR": 0, "MEAN_MOTION_DOT": -3.2e-06, "MEAN_MOTION_DDOT": 0}, "tle": {"line1": "1 41469U 16027A   25338.59766852 -.00000320  00000+0  00000+0 0  9993", "line2": "2 41469   4.7130 102.3035 0002879   3.0544 313.0402  1.00289359 35229"}}, "geometry": {"type": "Point", "coordinates": [65.68061179159325, -2.786234589665661]}}]}